{
  "type": "FeatureCollection",
  "features": [
    {
      "type": "Feature",
      "properties": {
        "name": "North-Central Corridor",
        "type": "proposed_corridor",
        "width_meters": 500,
        "priority": "high",
        "species": ["Tiger", "Elephant", "Deer"]
      },
      "geometry": {
        "type": "Polygon",
        "coordinates": [[[77.15, 28.75], [77.2, 28.75], [77.35, 28.68], [77.35, 28.63], [77.2, 28.7], [77.15, 28.7], [77.15, 28.75]]]
      }
    },
    {
      "type": "Feature",
      "properties": {
        "name": "Western Link",
        "type": "existing_corridor",
        "width_meters": 300,
        "priority": "medium",
        "species": ["Elephant", "Leopard"]
      },
      "geometry": {
        "type": "Polygon",
        "coordinates": [[[76.95, 28.68], [77.0, 28.68], [77.05, 28.82], [77.0, 28.82], [76.95, 28.68]]]
      }
    }
  ]
}
