{
  "type": "FeatureCollection",
  "features": [
    {
      "type": "Feature",
      "properties": {
        "name": "Proposed Highway Extension",
        "type": "highway",
        "width_meters": 30
      },
      "geometry": {
        "type": "LineString",
        "coordinates": [[76.8, 28.53], [77.0, 28.54], [77.2, 28.55], [77.4, 28.54], [77.6, 28.53], [77.8, 28.52]]
      }
    },
    {
      "type": "Feature",
      "properties": {
        "name": "Industrial Zone A",
        "type": "construction",
        "area_hectares": 25
      },
      "geometry": {
        "type": "Polygon",
        "coordinates": [[[77.0, 28.5], [77.1, 28.5], [77.1, 28.56], [77.0, 28.56], [77.0, 28.5]]]
      }
    }
  ]
}
