{
  "type": "FeatureCollection",
  "features": [
    {
      "type": "Feature",
      "properties": {
        "name": "National Highway 44",
        "type": "highway",
        "lanes": 4,
        "traffic_level": "high"
      },
      "geometry": {
        "type": "LineString",
        "coordinates": [[76.7, 28.5], [77.0, 28.55], [77.3, 28.58], [77.6, 28.55], [77.9, 28.5]]
      }
    },
    {
      "type": "Feature",
      "properties": {
        "name": "State Highway 12",
        "type": "state_highway",
        "lanes": 2,
        "traffic_level": "medium"
      },
      "geometry": {
        "type": "LineString",
        "coordinates": [[77.0, 28.3], [77.1, 28.5], [77.15, 28.7], [77.2, 28.9]]
      }
    },
    {
      "type": "Feature",
      "properties": {
        "name": "District Road 5",
        "type": "district_road",
        "lanes": 2,
        "traffic_level": "low"
      },
      "geometry": {
        "type": "LineString",
        "coordinates": [[77.4, 28.4], [77.45, 28.6], [77.5, 28.75]]
      }
    },
    {
      "type": "Feature",
      "properties": {
        "name": "Railway Line",
        "type": "railway",
        "tracks": 2,
        "traffic_level": "high"
      },
      "geometry": {
        "type": "LineString",
        "coordinates": [[76.8, 28.7], [77.1, 28.68], [77.4, 28.65], [77.7, 28.6]]
      }
    }
  ]
}
