{
  "type": "FeatureCollection",
  "features": [
    { "type": "Feature", "properties": { "species": "Neem", "age": 15 }, "geometry": { "type": "Point", "coordinates": [76.85, 28.52] } },
    { "type": "Feature", "properties": { "species": "Banyan", "age": 45 }, "geometry": { "type": "Point", "coordinates": [76.88, 28.54] } },
    { "type": "Feature", "properties": { "species": "Peepal", "age": 30 }, "geometry": { "type": "Point", "coordinates": [76.92, 28.51] } },
    { "type": "Feature", "properties": { "species": "Mango", "age": 20 }, "geometry": { "type": "Point", "coordinates": [76.95, 28.55] } },
    { "type": "Feature", "properties": { "species": "Ashoka", "age": 12 }, "geometry": { "type": "Point", "coordinates": [77.0, 28.53] } },
    { "type": "Feature", "properties": { "species": "Neem", "age": 8 }, "geometry": { "type": "Point", "coordinates": [77.05, 28.56] } },
    { "type": "Feature", "properties": { "species": "Gulmohar", "age": 10 }, "geometry": { "type": "Point", "coordinates": [77.1, 28.54] } },
    { "type": "Feature", "properties": { "species": "Teak", "age": 35 }, "geometry": { "type": "Point", "coordinates": [77.15, 28.58] } },
    { "type": "Feature", "properties": { "species": "Sal", "age": 50 }, "geometry": { "type": "Point", "coordinates": [77.2, 28.52] } },
    { "type": "Feature", "properties": { "species": "Jamun", "age": 25 }, "geometry": { "type": "Point", "coordinates": [77.25, 28.55] } },
    { "type": "Feature", "properties": { "species": "Tamarind", "age": 40 }, "geometry": { "type": "Point", "coordinates": [77.3, 28.57] } },
    { "type": "Feature", "properties": { "species": "Neem", "age": 18 }, "geometry": { "type": "Point", "coordinates": [77.35, 28.53] } },
    { "type": "Feature", "properties": { "species": "Banyan", "age": 60 }, "geometry": { "type": "Point", "coordinates": [77.4, 28.56] } },
    { "type": "Feature", "properties": { "species": "Peepal", "age": 22 }, "geometry": { "type": "Point", "coordinates": [77.45, 28.54] } },
    { "type": "Feature", "properties": { "species": "Eucalyptus", "age": 8 }, "geometry": { "type": "Point", "coordinates": [77.5, 28.58] } },
    { "type": "Feature", "properties": { "species": "Mango", "age": 15 }, "geometry": { "type": "Point", "coordinates": [77.55, 28.51] } },
    { "type": "Feature", "properties": { "species": "Ashoka", "age": 6 }, "geometry": { "type": "Point", "coordinates": [77.6, 28.55] } },
    { "type": "Feature", "properties": { "species": "Gulmohar", "age": 12 }, "geometry": { "type": "Point", "coordinates": [77.65, 28.53] } },
    { "type": "Feature", "properties": { "species": "Teak", "age": 28 }, "geometry": { "type": "Point", "coordinates": [77.7, 28.57] } },
    { "type": "Feature", "properties": { "species": "Sal", "age": 45 }, "geometry": { "type": "Point", "coordinates": [77.75, 28.52] } },
    { "type": "Feature", "properties": { "species": "Neem", "age": 10 }, "geometry": { "type": "Point", "coordinates": [76.9, 28.48] } },
    { "type": "Feature", "properties": { "species": "Jamun", "age": 20 }, "geometry": { "type": "Point", "coordinates": [77.0, 28.46] } },
    { "type": "Feature", "properties": { "species": "Tamarind", "age": 35 }, "geometry": { "type": "Point", "coordinates": [77.1, 28.49] } },
    { "type": "Feature", "properties": { "species": "Banyan", "age": 55 }, "geometry": { "type": "Point", "coordinates": [77.2, 28.47] } },
    { "type": "Feature", "properties": { "species": "Peepal", "age": 18 }, "geometry": { "type": "Point", "coordinates": [77.3, 28.5] } }
  ]
}
